SKYTERRA 1              
1 37218U 10061A   23328.85660451 -.00000110  00000+0  00000+0 0  9993
2 37218   3.2347  45.6016 0004818 203.9826  21.0527  1.00271005 47818
HYLAS 1                 
1 37237U 10065A   23328.90118825 -.00000136  00000+0  00000+0 0  9995
2 37237   3.2494  84.2918 0001747 153.6337 306.5512  1.00268819 47609
INTELSAT 17 (IS-17)     
1 37238U 10065B   23328.87618833  .00000006  00000+0  00000+0 0  9991
2 37238   0.0168 305.0999 0002394 298.6251 201.2884  1.00271556 43858
BEIDOU-2 IGSO-2         
1 37256U 10068A   23328.82611633 -.00000232  00000+0  00000+0 0  9992
2 37256  49.2630 283.3195 0030242 213.9611 330.4162  1.00257054 47413
EUTELSAT KA-SAT 9A      
1 37258U 10069A   23328.66366788  .00000070  00000+0  00000+0 0  9994
2 37258   0.0505 284.9847 0002948 300.6984  85.6511  1.00270249 47431
HISPASAT 30W-5          
1 37264U 10070A   23328.87087622 -.00000207  00000+0  00000+0 0  9996
2 37264   0.0663 104.9508 0004158 115.1803 126.9783  1.00270691 43800
KOREASAT 6              
1 37265U 10070B   23328.89007826 -.00000354  00000+0  00000+0 0  9990
2 37265   0.0206  65.7296 0004068 197.0963 237.1759  1.00270218 47399
BEIDOU-2 IGSO-3         
1 37384U 11013A   23328.52279016 -.00000215  00000+0  00000+0 0  9998
2 37384  61.0543  49.1079 0027691 181.5379 127.3578  1.00260671 46270
RESOURCESAT-2           
1 37387U 11015A   23329.14851734  .00000329  00000+0  16926-3 0  9998
2 37387  98.6054  35.3463 0004073   4.2129 355.9082 14.21683102653855
YOUTHSAT                
1 37388U 11015B   23329.03350241  .00000412  00000+0  19428-3 0  9997
2 37388  98.2981 334.7921 0014151 204.8539 216.5957 14.24714303654964
X-SAT                   
1 37389U 11015C   23329.11707434  .00000192  00000+0  99913-4 0  9990
2 37389  98.2967 339.4015 0013634 205.2317 154.8199 14.24594455655034
INTELSAT NEW DAWN       
1 37392U 11016A   23328.88332046  .00000164  00000+0  00000+0 0  9994
2 37392   0.0091 336.2104 0002126 279.7551 158.4017  1.00273218 43908
YAHSAT 1A               
1 37393U 11016B   23328.88729719  .00000109  00000+0  00000+0 0  9991
2 37393   0.0672  98.7250 0002413 158.4685 178.3261  1.00271650 33028
SBIRS GEO-1 (USA 230)   
1 37481U 11019A   23328.88984718  .00000003  00000+0  00000+0 0  9997
2 37481   2.6164  44.4641 0002208 199.2734 205.9071  1.00271968 46024
TELSTAR 14R             
1 37602U 11021A   23329.07063289 -.00000272  00000+0  00000+0 0  9997
2 37602   0.0144 356.4880 0002202 289.1397 100.5806  1.00270882 46411
GSAT-8                  
1 37605U 11022A   23329.10261774  .00000093  00000+0  00000+0 0  9994
2 37605   0.0104 314.6075 0009085 303.4036 257.7893  1.00272093 45863
ST-2                    
1 37606U 11022B   23328.89980067 -.00000204  00000+0  00000+0 0  9998
2 37606   0.0107  16.8955 0001201 267.6327 191.0367  1.00270865 45907
