[{"OBJECT_NAME":"SKYTERRA 1","OBJECT_ID":"2010-061A","EPOCH":"2023-11-24T20:33:30.629664","MEAN_MOTION":1.00271005,"ECCENTRICITY":0.0004818,"INCLINATION":3.2347,"RA_OF_ASC_NODE":45.6016,"ARG_OF_PERICENTER":203.9826,"MEAN_ANOMALY":21.0527,"EPHEMERIS_TYPE":0,"CLASSIFICATION_TYPE":"U","NORAD_CAT_ID":37218,"ELEMENT_SET_NO":999,"REV_AT_EPOCH":4781,"BSTAR":0,"MEAN_MOTION_DOT":-1.1e-6,"MEAN_MOTION_DDOT":0},{"OBJECT_NAME":"HYLAS 1","OBJECT_ID":"2010-065A","EPOCH":"2023-11-24T21:37:42.664800","MEAN_MOTION":1.00268819,"ECCENTRICITY":0.0001747,"INCLINATION":3.2494,"RA_OF_ASC_NODE":84.2918,"ARG_OF_PERICENTER":153.6337,"MEAN_ANOMALY":306.5512,"EPHEMERIS_TYPE":0,"CLASSIFICATION_TYPE":"U","NORAD_CAT_ID":37237,"ELEMENT_SET_NO":999,"REV_AT_EPOCH":4760,"BSTAR":0,"MEAN_MOTION_DOT":-1.36e-6,"MEAN_MOTION_DDOT":0},{"OBJECT_NAME":"INTELSAT 17 (IS-17)","OBJECT_ID":"2010-065B","EPOCH":"2023-11-24T21:01:42.671712","MEAN_MOTION":1.00271556,"ECCENTRICITY":0.0002394,"INCLINATION":0.0168,"RA_OF_ASC_NODE":305.0999,"ARG_OF_PERICENTER":298.6251,"MEAN_ANOMALY":201.2884,"EPHEMERIS_TYPE":0,"CLASSIFICATION_TYPE":"U","NORAD_CAT_ID":37238,"ELEMENT_SET_NO":999,"REV_AT_EPOCH":4385,"BSTAR":0,"MEAN_MOTION_DOT":6.0e-8,"MEAN_MOTION_DDOT":0},{"OBJECT_NAME":"BEIDOU-2 IGSO-2","OBJECT_ID":"2010-068A","EPOCH":"2023-11-24T19:49:36.450912","MEAN_MOTION":1.00257054,"ECCENTRICITY":0.0030242,"INCLINATION":49.263,"RA_OF_ASC_NODE":283.3195,"ARG_OF_PERICENTER":213.9611,"MEAN_ANOMALY":330.4162,"EPHEMERIS_TYPE":0,"CLASSIFICATION_TYPE":"U","NORAD_CAT_ID":37256,"ELEMENT_SET_NO":999,"REV_AT_EPOCH":4741,"BSTAR":0,"MEAN_MOTION_DOT":-2.32e-6,"MEAN_MOTION_DDOT":0},{"OBJECT_NAME":"EUTELSAT KA-SAT 9A","OBJECT_ID":"2010-069A","EPOCH":"2023-11-24T15:55:40.904832","MEAN_MOTION":1.00270249,"ECCENTRICITY":0.0002948,"INCLINATION":0.0505,"RA_OF_ASC_NODE":284.9847,"ARG_OF_PERICENTER":300.6984,"MEAN_ANOMALY":85.6511,"EPHEMERIS_TYPE":0,"CLASSIFICATION_TYPE":"U","NORAD_CAT_ID":37258,"ELEMENT_SET_NO":999,"REV_AT_EPOCH":4743,"BSTAR":0,"MEAN_MOTION_DOT":7.0e-7,"MEAN_MOTION_DDOT":0},{"OBJECT_NAME":"HISPASAT 30W-5","OBJECT_ID":"2010-070A","EPOCH":"2023-11-24T20:54:03.705408","MEAN_MOTION":1.00270691,"ECCENTRICITY":0.0004158,"INCLINATION":0.0663,"RA_OF_ASC_NODE":104.9508,"ARG_OF_PERICENTER":115.1803,"MEAN_ANOMALY":126.9783,"EPHEMERIS_TYPE":0,"CLASSIFICATION_TYPE":"U","NORAD_CAT_ID":37264,"ELEMENT_SET_NO":999,"REV_AT_EPOCH":4380,"BSTAR":0,"MEAN_MOTION_DOT":-2.07e-6,"MEAN_MOTION_DDOT":0},{"OBJECT_NAME":"KOREASAT 6","OBJECT_ID":"2010-070B","EPOCH":"2023-11-24T21:21:42.761664","MEAN_MOTION":1.00270218,"ECCENTRICITY":0.0004068,"INCLINATION":0.0206,"RA_OF_ASC_NODE":65.7296,"ARG_OF_PERICENTER":197.0963,"MEAN_ANOMALY":237.1759,"EPHEMERIS_TYPE":0,"CLASSIFICATION_TYPE":"U","NORAD_CAT_ID":37265,"ELEMENT_SET_NO":999,"REV_AT_EPOCH":4739,"BSTAR":0,"MEAN_MOTION_DOT":-3.54e-6,"MEAN_MOTION_DDOT":0},{"OBJECT_NAME":"BEIDOU-2 IGSO-3","OBJECT_ID":"2011-013A","EPOCH":"2023-11-24T12:32:49.069824","MEAN_MOTION":1.00260671,"ECCENTRICITY":0.0027691,"INCLINATION":61.0543,"RA_OF_ASC_NODE":49.1079,"ARG_OF_PERICENTER":181.5379,"MEAN_ANOMALY":127.3578,"EPHEMERIS_TYPE":0,"CLASSIFICATION_TYPE":"U","NORAD_CAT_ID":37384,"ELEMENT_SET_NO":999,"REV_AT_EPOCH":4627,"BSTAR":0,"MEAN_MOTION_DOT":-2.15e-6,"MEAN_MOTION_DDOT":0},{"OBJECT_NAME":"RESOURCESAT-2","OBJECT_ID":"2011-015A","EPOCH":"2023-11-25T03:33:51.898176","MEAN_MOTION":14.21683102,"ECCENTRICITY":0.0004073,"INCLINATION":98.6054,"RA_OF_ASC_NODE":35.3463,"ARG_OF_PERICENTER":4.2129,"MEAN_ANOMALY":355.9082,"EPHEMERIS_TYPE":0,"CLASSIFICATION_TYPE":"U","NORAD_CAT_ID":37387,"ELEMENT_SET_NO":999,"REV_AT_EPOCH":65385,"BSTAR":0.00016926,"MEAN_MOTION_DOT":3.29e-6,"MEAN_MOTION_DDOT":0},{"OBJECT_NAME":"YOUTHSAT","OBJECT_ID":"2011-015B","EPOCH":"2023-11-25T00:48:14.608224","MEAN_MOTION":14.24714303,"ECCENTRICITY":0.0014151,"INCLINATION":98.2981,"RA_OF_ASC_NODE":334.7921,"ARG_OF_PERICENTER":204.8539,"MEAN_ANOMALY":216.5957,"EPHEMERIS_TYPE":0,"CLASSIFICATION_TYPE":"U","NORAD_CAT_ID":37388,"ELEMENT_SET_NO":999,"REV_AT_EPOCH":65496,"BSTAR":0.00019428,"MEAN_MOTION_DOT":4.12e-6,"MEAN_MOTION_DDOT":0},{"OBJECT_NAME":"X-SAT","OBJECT_ID":"2011-015C","EPOCH":"2023-11-25T02:48:35.222976","MEAN_MOTION":14.24594455,"ECCENTRICITY":0.0013634,"INCLINATION":98.2967,"RA_OF_ASC_NODE":339.4015,"ARG_OF_PERICENTER":205.2317,"MEAN_ANOMALY":154.8199,"EPHEMERIS_TYPE":0,"CLASSIFICATION_TYPE":"U","NORAD_CAT_ID":37389,"ELEMENT_SET_NO":999,"REV_AT_EPOCH":65503,"BSTAR":9.9913e-5,"MEAN_MOTION_DOT":1.92e-6,"MEAN_MOTION_DDOT":0},{"OBJECT_NAME":"INTELSAT NEW DAWN","OBJECT_ID":"2011-016A","EPOCH":"2023-11-24T21:11:58.887744","MEAN_MOTION":1.00273218,"ECCENTRICITY":0.0002126,"INCLINATION":0.0091,"RA_OF_ASC_NODE":336.2104,"ARG_OF_PERICENTER":279.7551,"MEAN_ANOMALY":158.4017,"EPHEMERIS_TYPE":0,"CLASSIFICATION_TYPE":"U","NORAD_CAT_ID":37392,"ELEMENT_SET_NO":999,"REV_AT_EPOCH":4390,"BSTAR":0,"MEAN_MOTION_DOT":1.64e-6,"MEAN_MOTION_DDOT":0},{"OBJECT_NAME":"YAHSAT 1A","OBJECT_ID":"2011-016B","EPOCH":"2023-11-24T21:17:42.477216","MEAN_MOTION":1.0027165,"ECCENTRICITY":0.0002413,"INCLINATION":0.0672,"RA_OF_ASC_NODE":98.725,"ARG_OF_PERICENTER":158.4685,"MEAN_ANOMALY":178.3261,"EPHEMERIS_TYPE":0,"CLASSIFICATION_TYPE":"U","NORAD_CAT_ID":37393,"ELEMENT_SET_NO":999,"REV_AT_EPOCH":3302,"BSTAR":0,"MEAN_MOTION_DOT":1.09e-6,"MEAN_MOTION_DDOT":0},{"OBJECT_NAME":"SBIRS GEO-1 (USA 230)","OBJECT_ID":"2011-019A","EPOCH":"2023-11-24T21:21:22.796352","MEAN_MOTION":1.00271968,"ECCENTRICITY":0.0002208,"INCLINATION":2.6164,"RA_OF_ASC_NODE":44.4641,"ARG_OF_PERICENTER":199.2734,"MEAN_ANOMALY":205.9071,"EPHEMERIS_TYPE":0,"CLASSIFICATION_TYPE":"U","NORAD_CAT_ID":37481,"ELEMENT_SET_NO":999,"REV_AT_EPOCH":4602,"BSTAR":0,"MEAN_MOTION_DOT":3.0e-8,"MEAN_MOTION_DDOT":0},{"OBJECT_NAME":"TELSTAR 14R","OBJECT_ID":"2011-021A","EPOCH":"2023-11-25T01:41:42.681696","MEAN_MOTION":1.00270882,"ECCENTRICITY":0.0002202,"INCLINATION":0.0144,"RA_OF_ASC_NODE":356.488,"ARG_OF_PERICENTER":289.1397,"MEAN_ANOMALY":100.5806,"EPHEMERIS_TYPE":0,"CLASSIFICATION_TYPE":"U","NORAD_CAT_ID":37602,"ELEMENT_SET_NO":999,"REV_AT_EPOCH":4641,"BSTAR":0,"MEAN_MOTION_DOT":-2.72e-6,"MEAN_MOTION_DDOT":0},{"OBJECT_NAME":"GSAT-8","OBJECT_ID":"2011-022A","EPOCH":"2023-11-25T02:27:46.172736","MEAN_MOTION":1.00272093,"ECCENTRICITY":0.0009085,"INCLINATION":0.0104,"RA_OF_ASC_NODE":314.6075,"ARG_OF_PERICENTER":303.4036,"MEAN_ANOMALY":257.7893,"EPHEMERIS_TYPE":0,"CLASSIFICATION_TYPE":"U","NORAD_CAT_ID":37605,"ELEMENT_SET_NO":999,"REV_AT_EPOCH":4586,"BSTAR":0,"MEAN_MOTION_DOT":9.3e-7,"MEAN_MOTION_DDOT":0},{"OBJECT_NAME":"ST-2","OBJECT_ID":"2011-022B","EPOCH":"2023-11-24T21:35:42.777888","MEAN_MOTION":1.00270865,"ECCENTRICITY":0.0001201,"INCLINATION":0.0107,"RA_OF_ASC_NODE":16.8955,"ARG_OF_PERICENTER":267.6327,"MEAN_ANOMALY":191.0367,"EPHEMERIS_TYPE":0,"CLASSIFICATION_TYPE":"U","NORAD_CAT_ID":37606,"ELEMENT_SET_NO":999,"REV_AT_EPOCH":4590,"BSTAR":0,"MEAN_MOTION_DOT":-2.04e-6,"MEAN_MOTION_DDOT":0}]
